QIANFAN-33              
1 61566U 24185Q   25358.86979875  .00000462  00000+0  32446-3 0  9999
2 61566  88.9797  77.4589 0005029 291.3885  68.6755 13.96559902 70852
QIANFAN-34              
1 61567U 24185R   25358.85682194  .00000485  00000+0  30733-3 0  9996
2 61567  88.9771  77.0080 0003219 301.9939  58.0928 14.02316381 71052
QIANFAN-35              
1 61568U 24185S   25358.96036756  .00000834  00000+0  33072-3 0  9993
2 61568  88.9798  75.4484 0004860 231.3836 128.6923 14.27988301 71926
QIANFAN-36              
1 61569U 24185T   25358.84691895  .00000143  00000+0  18834-3 0  9994
2 61569  88.9782  79.7867 0006116  26.2002 333.9460 13.55592168 69560
QIANFAN-37              
1 62238U 24232B   25358.84280467  .00000073  00000+0  93864-4 0  9999
2 62238  89.0008  40.1081 0002587  90.8725 269.2722 13.50980061100807
QIANFAN-38              
1 62239U 24232C   25358.86747172  .00000077  00000+0  10112-3 0  9991
2 62239  89.0015  40.0221 0015638 153.9507 206.2434 13.50983291100866
QIANFAN-39              
1 62240U 24232D   25358.84913660  .00000318  00000+0  12861-3 0  9999
2 62240  89.0006  35.9245 0017555  45.6568 314.6061 14.25399607103117
QIANFAN-40              
1 62241U 24232E   25358.90038585  .00000059  00000+0  72467-4 0  9992
2 62241  89.0042  39.6067 0014444 160.8445 199.3252 13.50982920101233
